ONEWEB-0260             
1 48978U 21060M   26122.03514978 -.00000074  00000+0 -22750-3 0  9996
2 48978  87.9080 237.9515 0002331 104.1903 255.9487 13.16594706233537
ONEWEB-0261             
1 48979U 21060N   26121.85306434  .00000032  00000+0  50325-4 0  9994
2 48979  87.9088 237.9861 0002053  92.5330 267.6036 13.16592508233566
ONEWEB-0262             
1 48980U 21060P   26122.06128191 -.00000003  00000+0 -42457-4 0  9999
2 48980  87.9089 237.9294 0001638  96.5148 263.6169 13.16594103233553
ONEWEB-0263             
1 48981U 21060Q   26122.01693280 -.00000050  00000+0 -16340-3 0  9994
2 48981  87.9090 237.9496 0001935  91.0005 269.1347 13.16595355233517
ONEWEB-0264             
1 48982U 21060R   26122.05414758 -.00000096  00000+0 -28412-3 0  9993
2 48982  87.9088 237.9457 0002130  98.4864 261.6509 13.16595205233526
ONEWEB-0266             
1 48984U 21060T   26122.07552560  .00000016  00000+0  80612-5 0  9993
2 48984  87.9090 237.9315 0001821 103.0949 257.0386 13.16594613233510
ONEWEB-0267             
1 48985U 21060U   26122.01060384  .00000060  00000+0  12263-3 0  9990
2 48985  87.9093 237.9406 0002000  95.8299 264.3060 13.16595904233515
ONEWEB-0268             
1 48986U 21060V   26121.82694824 -.00000028  00000+0 -10811-3 0  9994
2 48986  87.9090 237.9866 0002030 103.7966 256.3391 13.16593098233752
ONEWEB-0269             
1 48987U 21060W   26122.03594987 -.00000027  00000+0 -10303-3 0  9993
2 48987  87.9077 237.9531 0002026 106.9617 253.1736 13.16594758233550
ONEWEB-0270             
1 48988U 21060X   26122.05336517  .00000106  00000+0  24340-3 0  9991
2 48988  87.9090 237.9435 0001769  90.4304 269.7030 13.16595507233599
ONEWEB-0271             
1 48989U 21060Y   26122.04070251 -.00000050  00000+0 -16392-3 0  9999
2 48989  87.9088 237.9370 0001951  93.6280 266.5074 13.16594690233591
ONEWEB-0272             
1 48990U 21060Z   26122.06285779  .00000049  00000+0  95662-4 0  9990
2 48990  87.9090 237.9437 0002194  99.4313 260.7066 13.16593223233544
ONEWEB-0273             
1 48991U 21060AA  26122.08503485 -.00000011  00000+0 -62996-4 0  9995
2 48991  87.9090 237.9379 0001896  96.9160 263.2187 13.16594228233526
ONEWEB-0274             
1 48992U 21060AB  26122.03435718 -.00000044  00000+0 -14906-3 0  9997
2 48992  87.9080 237.9554 0002249 101.9356 258.2027 13.16595035233555
ONEWEB-0275             
1 48993U 21060AC  26122.02326912 -.00000005  00000+0 -46547-4 0  9996
2 48993  87.9091 237.9421 0001998  99.7165 260.4191 13.16596055233485
ONEWEB-0276             
1 48994U 21060AD  26122.05653184  .00000013  00000+0  61187-6 0  9990
2 48994  87.9088 237.9357 0002099 102.3996 257.7370 13.16595311233501
