[{"OBJECT_NAME":"ONEWEB-0260","OBJECT_ID":"2021-060M","EPOCH":"2026-05-02T00:50:36.940992","MEAN_MOTION":13.16594706,"ECCENTRICITY":0.0002331,"INCLINATION":87.908,"RA_OF_ASC_NODE":237.9515,"ARG_OF_PERICENTER":104.1903,"MEAN_ANOMALY":255.9487,"EPHEMERIS_TYPE":0,"CLASSIFICATION_TYPE":"U","NORAD_CAT_ID":48978,"ELEMENT_SET_NO":999,"REV_AT_EPOCH":23353,"BSTAR":-0.0002275,"MEAN_MOTION_DOT":-7.4e-07,"MEAN_MOTION_DDOT":0.0},{"OBJECT_NAME":"ONEWEB-0261","OBJECT_ID":"2021-060N","EPOCH":"2026-05-01T20:28:24.758976","MEAN_MOTION":13.16592508,"ECCENTRICITY":0.0002053,"INCLINATION":87.9088,"RA_OF_ASC_NODE":237.9861,"ARG_OF_PERICENTER":92.533,"MEAN_ANOMALY":267.6036,"EPHEMERIS_TYPE":0,"CLASSIFICATION_TYPE":"U","NORAD_CAT_ID":48979,"ELEMENT_SET_NO":999,"REV_AT_EPOCH":23356,"BSTAR":5.0325e-05,"MEAN_MOTION_DOT":3.2e-07,"MEAN_MOTION_DDOT":0.0},{"OBJECT_NAME":"ONEWEB-0262","OBJECT_ID":"2021-060P","EPOCH":"2026-05-02T01:28:14.757024","MEAN_MOTION":13.16594103,"ECCENTRICITY":0.0001638,"INCLINATION":87.9089,"RA_OF_ASC_NODE":237.9294,"ARG_OF_PERICENTER":96.5148,"MEAN_ANOMALY":263.6169,"EPHEMERIS_TYPE":0,"CLASSIFICATION_TYPE":"U","NORAD_CAT_ID":48980,"ELEMENT_SET_NO":999,"REV_AT_EPOCH":23355,"BSTAR":-4.2457000000000004e-05,"MEAN_MOTION_DOT":-3e-08,"MEAN_MOTION_DDOT":0.0},{"OBJECT_NAME":"ONEWEB-0263","OBJECT_ID":"2021-060Q","EPOCH":"2026-05-02T00:24:22.993920","MEAN_MOTION":13.16595355,"ECCENTRICITY":0.0001935,"INCLINATION":87.909,"RA_OF_ASC_NODE":237.9496,"ARG_OF_PERICENTER":91.0005,"MEAN_ANOMALY":269.1347,"EPHEMERIS_TYPE":0,"CLASSIFICATION_TYPE":"U","NORAD_CAT_ID":48981,"ELEMENT_SET_NO":999,"REV_AT_EPOCH":23351,"BSTAR":-0.0001634,"MEAN_MOTION_DOT":-5e-07,"MEAN_MOTION_DDOT":0.0},{"OBJECT_NAME":"ONEWEB-0264","OBJECT_ID":"2021-060R","EPOCH":"2026-05-02T01:17:58.350912","MEAN_MOTION":13.16595205,"ECCENTRICITY":0.000213,"INCLINATION":87.9088,"RA_OF_ASC_NODE":237.9457,"ARG_OF_PERICENTER":98.4864,"MEAN_ANOMALY":261.6509,"EPHEMERIS_TYPE":0,"CLASSIFICATION_TYPE":"U","NORAD_CAT_ID":48982,"ELEMENT_SET_NO":999,"REV_AT_EPOCH":23352,"BSTAR":-0.00028412,"MEAN_MOTION_DOT":-9.6e-07,"MEAN_MOTION_DDOT":0.0},{"OBJECT_NAME":"ONEWEB-0266","OBJECT_ID":"2021-060T","EPOCH":"2026-05-02T01:48:45.411840","MEAN_MOTION":13.16594613,"ECCENTRICITY":0.0001821,"INCLINATION":87.909,"RA_OF_ASC_NODE":237.9315,"ARG_OF_PERICENTER":103.0949,"MEAN_ANOMALY":257.0386,"EPHEMERIS_TYPE":0,"CLASSIFICATION_TYPE":"U","NORAD_CAT_ID":48984,"ELEMENT_SET_NO":999,"REV_AT_EPOCH":23351,"BSTAR":8.0612e-06,"MEAN_MOTION_DOT":1.6e-07,"MEAN_MOTION_DDOT":0.0},{"OBJECT_NAME":"ONEWEB-0267","OBJECT_ID":"2021-060U","EPOCH":"2026-05-02T00:15:16.171776","MEAN_MOTION":13.16595904,"ECCENTRICITY":0.0002,"INCLINATION":87.9093,"RA_OF_ASC_NODE":237.9406,"ARG_OF_PERICENTER":95.8299,"MEAN_ANOMALY":264.306,"EPHEMERIS_TYPE":0,"CLASSIFICATION_TYPE":"U","NORAD_CAT_ID":48985,"ELEMENT_SET_NO":999,"REV_AT_EPOCH":23351,"BSTAR":0.00012263,"MEAN_MOTION_DOT":6e-07,"MEAN_MOTION_DDOT":0.0},{"OBJECT_NAME":"ONEWEB-0268","OBJECT_ID":"2021-060V","EPOCH":"2026-05-01T19:50:48.327936","MEAN_MOTION":13.16593098,"ECCENTRICITY":0.000203,"INCLINATION":87.909,"RA_OF_ASC_NODE":237.9866,"ARG_OF_PERICENTER":103.7966,"MEAN_ANOMALY":256.3391,"EPHEMERIS_TYPE":0,"CLASSIFICATION_TYPE":"U","NORAD_CAT_ID":48986,"ELEMENT_SET_NO":999,"REV_AT_EPOCH":23375,"BSTAR":-0.00010811,"MEAN_MOTION_DOT":-2.8e-07,"MEAN_MOTION_DDOT":0.0},{"OBJECT_NAME":"ONEWEB-0269","OBJECT_ID":"2021-060W","EPOCH":"2026-05-02T00:51:46.068768","MEAN_MOTION":13.16594758,"ECCENTRICITY":0.0002026,"INCLINATION":87.9077,"RA_OF_ASC_NODE":237.9531,"ARG_OF_PERICENTER":106.9617,"MEAN_ANOMALY":253.1736,"EPHEMERIS_TYPE":0,"CLASSIFICATION_TYPE":"U","NORAD_CAT_ID":48987,"ELEMENT_SET_NO":999,"REV_AT_EPOCH":23355,"BSTAR":-0.00010303,"MEAN_MOTION_DOT":-2.7e-07,"MEAN_MOTION_DDOT":0.0},{"OBJECT_NAME":"ONEWEB-0270","OBJECT_ID":"2021-060X","EPOCH":"2026-05-02T01:16:50.750688","MEAN_MOTION":13.16595507,"ECCENTRICITY":0.0001769,"INCLINATION":87.909,"RA_OF_ASC_NODE":237.9435,"ARG_OF_PERICENTER":90.4304,"MEAN_ANOMALY":269.703,"EPHEMERIS_TYPE":0,"CLASSIFICATION_TYPE":"U","NORAD_CAT_ID":48988,"ELEMENT_SET_NO":999,"REV_AT_EPOCH":23359,"BSTAR":0.0002434,"MEAN_MOTION_DOT":1.06e-06,"MEAN_MOTION_DDOT":0.0},{"OBJECT_NAME":"ONEWEB-0271","OBJECT_ID":"2021-060Y","EPOCH":"2026-05-02T00:58:36.696864","MEAN_MOTION":13.1659469,"ECCENTRICITY":0.0001951,"INCLINATION":87.9088,"RA_OF_ASC_NODE":237.937,"ARG_OF_PERICENTER":93.628,"MEAN_ANOMALY":266.5074,"EPHEMERIS_TYPE":0,"CLASSIFICATION_TYPE":"U","NORAD_CAT_ID":48989,"ELEMENT_SET_NO":999,"REV_AT_EPOCH":23359,"BSTAR":-0.00016392000000000002,"MEAN_MOTION_DOT":-5e-07,"MEAN_MOTION_DDOT":0.0},{"OBJECT_NAME":"ONEWEB-0272","OBJECT_ID":"2021-060Z","EPOCH":"2026-05-02T01:30:30.913056","MEAN_MOTION":13.16593223,"ECCENTRICITY":0.0002194,"INCLINATION":87.909,"RA_OF_ASC_NODE":237.9437,"ARG_OF_PERICENTER":99.4313,"MEAN_ANOMALY":260.7066,"EPHEMERIS_TYPE":0,"CLASSIFICATION_TYPE":"U","NORAD_CAT_ID":48990,"ELEMENT_SET_NO":999,"REV_AT_EPOCH":23354,"BSTAR":9.5662e-05,"MEAN_MOTION_DOT":4.9e-07,"MEAN_MOTION_DDOT":0.0},{"OBJECT_NAME":"ONEWEB-0273","OBJECT_ID":"2021-060AA","EPOCH":"2026-05-02T02:02:27.011040","MEAN_MOTION":13.16594228,"ECCENTRICITY":0.0001896,"INCLINATION":87.909,"RA_OF_ASC_NODE":237.9379,"ARG_OF_PERICENTER":96.916,"MEAN_ANOMALY":263.2187,"EPHEMERIS_TYPE":0,"CLASSIFICATION_TYPE":"U","NORAD_CAT_ID":48991,"ELEMENT_SET_NO":999,"REV_AT_EPOCH":23352,"BSTAR":-6.2996e-05,"MEAN_MOTION_DOT":-1.1e-07,"MEAN_MOTION_DDOT":0.0},{"OBJECT_NAME":"ONEWEB-0274","OBJECT_ID":"2021-060AB","EPOCH":"2026-05-02T00:49:28.460352","MEAN_MOTION":13.16595035,"ECCENTRICITY":0.0002249,"INCLINATION":87.908,"RA_OF_ASC_NODE":237.9554,"ARG_OF_PERICENTER":101.9356,"MEAN_ANOMALY":258.2027,"EPHEMERIS_TYPE":0,"CLASSIFICATION_TYPE":"U","NORAD_CAT_ID":48992,"ELEMENT_SET_NO":999,"REV_AT_EPOCH":23355,"BSTAR":-0.00014906,"MEAN_MOTION_DOT":-4.4e-07,"MEAN_MOTION_DDOT":0.0},{"OBJECT_NAME":"ONEWEB-0275","OBJECT_ID":"2021-060AC","EPOCH":"2026-05-02T00:33:30.451968","MEAN_MOTION":13.16596055,"ECCENTRICITY":0.0001998,"INCLINATION":87.9091,"RA_OF_ASC_NODE":237.9421,"ARG_OF_PERICENTER":99.7165,"MEAN_ANOMALY":260.4191,"EPHEMERIS_TYPE":0,"CLASSIFICATION_TYPE":"U","NORAD_CAT_ID":48993,"ELEMENT_SET_NO":999,"REV_AT_EPOCH":23348,"BSTAR":-4.6547e-05,"MEAN_MOTION_DOT":-5e-08,"MEAN_MOTION_DDOT":0.0},{"OBJECT_NAME":"ONEWEB-0276","OBJECT_ID":"2021-060AD","EPOCH":"2026-05-02T01:21:24.350976","MEAN_MOTION":13.16595311,"ECCENTRICITY":0.0002099,"INCLINATION":87.9088,"RA_OF_ASC_NODE":237.9357,"ARG_OF_PERICENTER":102.3996,"MEAN_ANOMALY":257.737,"EPHEMERIS_TYPE":0,"CLASSIFICATION_TYPE":"U","NORAD_CAT_ID":48994,"ELEMENT_SET_NO":999,"REV_AT_EPOCH":23350,"BSTAR":6.1187e-07,"MEAN_MOTION_DOT":1.3e-07,"MEAN_MOTION_DDOT":0.0}]